CCSDS_OMM_VERS = 2.0
CREATION_DATE  = 
ORIGINATOR     = 

OBJECT_NAME    = CYGNUS NG-23
OBJECT_ID      = 2025-208A
CENTER_NAME    = EARTH
REF_FRAME      = TEME
TIME_SYSTEM    = UTC
MEAN_ELEMENT_THEORY = SGP/SGP4

EPOCH          = 2025-12-28T20:32:34.979424
MEAN_MOTION    = 15.49920091
ECCENTRICITY   = .00032554
INCLINATION    = 51.6322
RA_OF_ASC_NODE = 62.6586
ARG_OF_PERICENTER = 316.0304
MEAN_ANOMALY   = 44.0425

EPHEMERIS_TYPE = 0
CLASSIFICATION_TYPE = U
NORAD_CAT_ID   = 65616
ELEMENT_SET_NO = 999
REV_AT_EPOCH   = 22
BSTAR          = .320065E-3
MEAN_MOTION_DOT = .17802E-3
MEAN_MOTION_DDOT = 0

CCSDS_OMM_VERS = 2.0
CREATION_DATE  = 
ORIGINATOR     = 

OBJECT_NAME    = DRAGONFLY
OBJECT_ID      = 1998-067XH
CENTER_NAME    = EARTH
REF_FRAME      = TEME
TIME_SYSTEM    = UTC
MEAN_ELEMENT_THEORY = SGP/SGP4

EPOCH          = 2025-12-29T04:10:46.102944
MEAN_MOTION    = 15.78189024
ECCENTRICITY   = .0008582
INCLINATION    = 51.6250
RA_OF_ASC_NODE = 51.2497
ARG_OF_PERICENTER = 13.4870
MEAN_ANOMALY   = 346.6359

EPHEMERIS_TYPE = 0
CLASSIFICATION_TYPE = U
NORAD_CAT_ID   = 65729
ELEMENT_SET_NO = 999
REV_AT_EPOCH   = 1575
BSTAR          = .15916933E-2
MEAN_MOTION_DOT = .28793E-2
MEAN_MOTION_DDOT = 0

CCSDS_OMM_VERS = 2.0
CREATION_DATE  = 
ORIGINATOR     = 

OBJECT_NAME    = 1998-067XK
OBJECT_ID      = 1998-067XK
CENTER_NAME    = EARTH
REF_FRAME      = TEME
TIME_SYSTEM    = UTC
MEAN_ELEMENT_THEORY = SGP/SGP4

EPOCH          = 2025-12-28T10:04:50.099520
MEAN_MOTION    = 15.68911796
ECCENTRICITY   = .0005104
INCLINATION    = 51.6293
RA_OF_ASC_NODE = 57.5001
ARG_OF_PERICENTER = 342.8254
MEAN_ANOMALY   = 17.2570

EPHEMERIS_TYPE = 0
CLASSIFICATION_TYPE = U
NORAD_CAT_ID   = 65731
ELEMENT_SET_NO = 999
REV_AT_EPOCH   = 1560
BSTAR          = .1111931E-2
MEAN_MOTION_DOT = .132128E-2
MEAN_MOTION_DDOT = 0

CCSDS_OMM_VERS = 2.0
CREATION_DATE  = 
ORIGINATOR     = 

OBJECT_NAME    = RSP-03
OBJECT_ID      = 1998-067XL
CENTER_NAME    = EARTH
REF_FRAME      = TEME
TIME_SYSTEM    = UTC
MEAN_ELEMENT_THEORY = SGP/SGP4

EPOCH          = 2025-12-29T02:09:23.709600
MEAN_MOTION    = 15.73169027
ECCENTRICITY   = .00062495
INCLINATION    = 51.6263
RA_OF_ASC_NODE = 52.9551
ARG_OF_PERICENTER = 353.9826
MEAN_ANOMALY   = 6.1096

EPHEMERIS_TYPE = 0
CLASSIFICATION_TYPE = U
NORAD_CAT_ID   = 65732
ELEMENT_SET_NO = 999
REV_AT_EPOCH   = 1573
BSTAR          = .1412223E-2
MEAN_MOTION_DOT = .202673E-2
MEAN_MOTION_DDOT = 0

CCSDS_OMM_VERS = 2.0
CREATION_DATE  = 
ORIGINATOR     = 

OBJECT_NAME    = GHS-01
OBJECT_ID      = 1998-067XM
CENTER_NAME    = EARTH
REF_FRAME      = TEME
TIME_SYSTEM    = UTC
MEAN_ELEMENT_THEORY = SGP/SGP4

EPOCH          = 2025-12-27T21:16:59.204640
MEAN_MOTION    = 15.82243780
ECCENTRICITY   = .000958
INCLINATION    = 51.6276
RA_OF_ASC_NODE = 56.9127
ARG_OF_PERICENTER = 10.1535
MEAN_ANOMALY   = 349.9659

EPHEMERIS_TYPE = 0
CLASSIFICATION_TYPE = U
NORAD_CAT_ID   = 65733
ELEMENT_SET_NO = 999
REV_AT_EPOCH   = 1557
BSTAR          = .15714E-2
MEAN_MOTION_DOT = .344717E-2
MEAN_MOTION_DDOT = 0

CCSDS_OMM_VERS = 2.0
CREATION_DATE  = 
ORIGINATOR     = 

OBJECT_NAME    = YOTSUBA-KULOVER
OBJECT_ID      = 1998-067XN
CENTER_NAME    = EARTH
REF_FRAME      = TEME
TIME_SYSTEM    = UTC
MEAN_ELEMENT_THEORY = SGP/SGP4

EPOCH          = 2025-12-29T04:05:02.864256
MEAN_MOTION    = 15.61779561
ECCENTRICITY   = .00030082
INCLINATION    = 51.6295
RA_OF_ASC_NODE = 57.2615
ARG_OF_PERICENTER = 19.6062
MEAN_ANOMALY   = 340.5047

EPHEMERIS_TYPE = 0
CLASSIFICATION_TYPE = U
NORAD_CAT_ID   = 65941
ELEMENT_SET_NO = 999
REV_AT_EPOCH   = 1242
BSTAR          = .10927847E-2
MEAN_MOTION_DOT = .97112E-3
MEAN_MOTION_DDOT = 0

CCSDS_OMM_VERS = 2.0
CREATION_DATE  = 
ORIGINATOR     = 

OBJECT_NAME    = BOTAN
OBJECT_ID      = 1998-067XP
CENTER_NAME    = EARTH
REF_FRAME      = TEME
TIME_SYSTEM    = UTC
MEAN_ELEMENT_THEORY = SGP/SGP4

EPOCH          = 2025-12-28T21:04:18.492384
MEAN_MOTION    = 15.66486827
ECCENTRICITY   = .00039241
INCLINATION    = 51.6282
RA_OF_ASC_NODE = 57.5575
ARG_OF_PERICENTER = 3.5779
MEAN_ANOMALY   = 356.5245

EPHEMERIS_TYPE = 0
CLASSIFICATION_TYPE = U
NORAD_CAT_ID   = 65942
ELEMENT_SET_NO = 999
REV_AT_EPOCH   = 1239
BSTAR          = .14400977E-2
MEAN_MOTION_DOT = .155553E-2
MEAN_MOTION_DDOT = 0

CCSDS_OMM_VERS = 2.0
CREATION_DATE  = 
ORIGINATOR     = 

OBJECT_NAME    = E-KAGAKU-1
OBJECT_ID      = 1998-067XQ
CENTER_NAME    = EARTH
REF_FRAME      = TEME
TIME_SYSTEM    = UTC
MEAN_ELEMENT_THEORY = SGP/SGP4

EPOCH          = 2025-12-29T04:05:06.004032
MEAN_MOTION    = 15.61808396
ECCENTRICITY   = .00017301
INCLINATION    = 51.6305
RA_OF_ASC_NODE = 57.2668
ARG_OF_PERICENTER = 359.8375
MEAN_ANOMALY   = 0.2618

EPHEMERIS_TYPE = 0
CLASSIFICATION_TYPE = U
NORAD_CAT_ID   = 65943
ELEMENT_SET_NO = 999
REV_AT_EPOCH   = 1242
BSTAR          = .1107922E-2
MEAN_MOTION_DOT = .98584E-3
MEAN_MOTION_DDOT = 0

CCSDS_OMM_VERS = 2.0
CREATION_DATE  = 
ORIGINATOR     = 

OBJECT_NAME    = HRC MONOBLOCK CAMERA
OBJECT_ID      = 1998-067XR
CENTER_NAME    = EARTH
REF_FRAME      = TEME
TIME_SYSTEM    = UTC
MEAN_ELEMENT_THEORY = SGP/SGP4

EPOCH          = 2025-12-29T04:05:44.946240
MEAN_MOTION    = 15.55319048
ECCENTRICITY   = .00017389
INCLINATION    = 51.6308
RA_OF_ASC_NODE = 59.5113
ARG_OF_PERICENTER = 269.1338
MEAN_ANOMALY   = 90.9454

EPHEMERIS_TYPE = 0
CLASSIFICATION_TYPE = U
NORAD_CAT_ID   = 66052
ELEMENT_SET_NO = 999
REV_AT_EPOCH   = 1139
BSTAR          = .66018248E-3
MEAN_MOTION_DOT = .45427E-3
MEAN_MOTION_DDOT = 0

CCSDS_OMM_VERS = 2.0
CREATION_DATE  = 
ORIGINATOR     = 

OBJECT_NAME    = HTV-X1
OBJECT_ID      = 2025-241A
CENTER_NAME    = EARTH
REF_FRAME      = TEME
TIME_SYSTEM    = UTC
MEAN_ELEMENT_THEORY = SGP/SGP4

EPOCH          = 2025-12-28T20:32:34.979424
MEAN_MOTION    = 15.49920091
ECCENTRICITY   = .00032554
INCLINATION    = 51.6322
RA_OF_ASC_NODE = 62.6586
ARG_OF_PERICENTER = 316.0304
MEAN_ANOMALY   = 44.0425

EPHEMERIS_TYPE = 0
CLASSIFICATION_TYPE = U
NORAD_CAT_ID   = 66174
ELEMENT_SET_NO = 999
REV_AT_EPOCH   = 51
BSTAR          = .320065E-3
MEAN_MOTION_DOT = .17802E-3
MEAN_MOTION_DDOT = 0

CCSDS_OMM_VERS = 2.0
CREATION_DATE  = 
ORIGINATOR     = 

OBJECT_NAME    = SZ-21 MODULE
OBJECT_ID      = 2025-246C
CENTER_NAME    = EARTH
REF_FRAME      = TEME
TIME_SYSTEM    = UTC
MEAN_ELEMENT_THEORY = SGP/SGP4

EPOCH          = 2025-12-28T18:28:38.146080
MEAN_MOTION    = 15.63373311
ECCENTRICITY   = .00037462
INCLINATION    = 41.4763
RA_OF_ASC_NODE = 278.1983
ARG_OF_PERICENTER = 347.8379
MEAN_ANOMALY   = 12.2370

EPHEMERIS_TYPE = 0
CLASSIFICATION_TYPE = U
NORAD_CAT_ID   = 66515
ELEMENT_SET_NO = 999
REV_AT_EPOCH   = 695
BSTAR          = .36158034E-3
MEAN_MOTION_DOT = .34087E-3
MEAN_MOTION_DDOT = 0

CCSDS_OMM_VERS = 2.0
CREATION_DATE  = 
ORIGINATOR     = 

OBJECT_NAME    = SHENZHOU-22
OBJECT_ID      = 2025-272A
CENTER_NAME    = EARTH
REF_FRAME      = TEME
TIME_SYSTEM    = UTC
MEAN_ELEMENT_THEORY = SGP/SGP4

EPOCH          = 2025-12-29T04:08:44.785248
MEAN_MOTION    = 15.59842432
ECCENTRICITY   = .00092303
INCLINATION    = 41.4674
RA_OF_ASC_NODE = 276.8939
ARG_OF_PERICENTER = 173.1352
MEAN_ANOMALY   = 186.9615

EPHEMERIS_TYPE = 0
CLASSIFICATION_TYPE = U
NORAD_CAT_ID   = 66645
ELEMENT_SET_NO = 999
REV_AT_EPOCH   = 26598
BSTAR          = .31522987E-3
MEAN_MOTION_DOT = .25856E-3
MEAN_MOTION_DDOT = 0

